DMSP 5D-3 F16 (USA 172) 
1 28054U 03048A   26157.91899631  .00000014  00000+0  31108-4 0  9992
2 28054  98.9893 181.6791 0007233 167.2445 310.8372 14.14482134168038
METEOSAT-9 (MSG-2)      
1 28912U 05049B   26157.85553681  .00000136  00000+0  00000+0 0  9990
2 28912   9.3374  54.2678 0001794 349.1342 205.5679  1.00268262  6893
DMSP 5D-3 F17 (USA 191) 
1 29522U 06050A   26157.91655011  .00000053  00000+0  49653-4 0  9998
2 29522  98.7378 164.6968 0011325  85.6566 274.5902 14.14991554 10971
FENGYUN 3A              
1 32958U 08026A   26157.54526748  .00000083  00000+0  59985-4 0  9995
2 32958  98.6881  98.5777 0009124 152.1297 208.0370 14.19568927933899
GOES 14                 
1 35491U 09033A   26157.63447317 -.00000234  00000+0  00000+0 0  9991
2 35491   1.6621  83.1711 0002046   2.3886 185.7647  1.00114764  6480
DMSP 5D-3 F18 (USA 210) 
1 35951U 09057A   26157.95795572  .00000249  00000+0  15209-3 0  9998
2 35951  98.9033 138.7496 0009886 282.0891  77.9175 14.14891058858149
EWS-G2 (GOES 15)        
1 36411U 10008A   26157.93040353  .00000033  00000+0  00000+0 0  9996
2 36411   1.2487  83.0327 0005467  36.8430 173.9937  1.00275973 59533
COMS 1                  
1 36744U 10032A   26152.73864208 -.00000334  00000+0  00000+0 0  9993
2 36744   4.7700  75.5552 0001064 351.7830 216.9341  1.00271905 50939
FENGYUN 3B              
1 37214U 10059A   26157.91149619  .00000307  00000+0  18200-3 0  9996
2 37214  98.9619 203.8822 0021409 213.7876 224.4795 14.14839922805971
SUOMI NPP               
1 37849U 11061A   26157.90859876  .00000078  00000+0  57982-4 0  9992
2 37849  98.7951  98.8551 0002078  28.9849 331.1442 14.19515249756989
METEOSAT-10 (MSG-3)     
1 38552U 12035B   26157.91784983  .00000008  00000+0  00000+0 0  9990
2 38552   4.6466  61.0641 0001696 336.1143 188.7715  1.00275739 50750
METOP-B                 
1 38771U 12049A   26157.91248241  .00000104  00000+0  67548-4 0  9992
2 38771  98.6508 209.6162 0002819  43.3380 316.8019 14.21429938711809
INSAT-3D                
1 39216U 13038B   26157.51567339 -.00000326  00000+0  00000+0 0  9996
2 39216   1.8977  82.6765 0000806 350.3630 137.0203  1.00268069 46977
FENGYUN 3C              
1 39260U 13052A   26157.93749557  .00000090  00000+0  66730-4 0  9995
2 39260  98.4974 132.2833 0015685  55.5494 304.7160 14.15752753657113
METEOR-M 2              
1 40069U 14037A   26157.93903829 -.00000072  00000+0 -13861-4 0  9991
2 40069  98.5114 134.0410 0007038  69.1947 290.9985 14.21457739617869
HIMAWARI-8              
1 40267U 14060A   26157.94565693 -.00000262  00000+0  00000+0 0  9997
2 40267   0.0189  49.1479 0000891  48.0400 279.2817  1.00271382 42654
FENGYUN 2G              
1 40367U 14090A   26157.79492472 -.00000289  00000+0  00000+0 0  9997
2 40367   5.6125  72.9393 0003330 154.5057  53.5102  1.00277925 41891
METEOSAT-11 (MSG-4)     
1 40732U 15034A   26157.91966984  .00000077  00000+0  00000+0 0  9994
2 40732   3.1767  71.1668 0001675   5.1970 159.4501  1.00277114  7119
ELEKTRO-L 2             
1 41105U 15074A   26156.98814725 -.00000105  00000+0  00000+0 0  9997
2 41105   6.6659  70.6588 0001304 282.3931 242.6125  1.00272284 38396
SENTINEL-3A             
1 41335U 16011A   26157.90747494  .00000115  00000+0  65689-4 0  9994
2 41335  98.6250 225.4383 0001345 104.6986 255.4344 14.26737156536599
INSAT-3DR               
1 41752U 16054A   26157.93248353 -.00000063  00000+0  00000+0 0  9991
2 41752   0.0793  87.7132 0010339 186.9679  30.3541  1.00270771 35717
HIMAWARI-9              
1 41836U 16064A   26157.94574360 -.00000261  00000+0  00000+0 0  9996
2 41836   0.0224 150.9500 0000858 327.3974 258.2472  1.00273274 35103
GOES 16                 
1 41866U 16071A   26157.89710603 -.00000077  00000+0  00000+0 0  9998
2 41866   0.3135  85.6289 0000540 318.1588  69.8176  1.00270926 35002
FENGYUN 4A              
1 41882U 16077A   26157.94236359 -.00000343  00000+0  00000+0 0  9995
2 41882   2.2963  80.3910 0008171 151.6723 126.3016  1.00275056 34822
CYGFM05                 
1 41884U 16078A   26157.85291226  .00026138  00000+0  36001-3 0  9995
2 41884  34.9578 328.9993 0007149  44.1669 315.9626 15.56205552527144
CYGFM04                 
1 41885U 16078B   26157.72737428  .00036004  00000+0  41409-3 0  9992
2 41885  34.9328 298.0398 0006009  89.6469 270.4945 15.60921223527368
CYGFM02                 
1 41886U 16078C   26157.74778463  .00042435  00000+0  43527-3 0  9997
2 41886  34.9411 292.7401 0006958  91.2851 268.8673 15.63814591527535
CYGFM01                 
1 41887U 16078D   26157.84608436  .00026906  00000+0  36150-3 0  9990
2 41887  34.9409 330.1851 0007064  37.5777 322.5440 15.56866284527097
CYGFM08                 
1 41888U 16078E   26157.82309373  .00031293  00000+0  38067-3 0  9991
2 41888  34.9438 310.1862 0007922  71.9711 288.1877 15.59466369527356
CYGFM07                 
1 41890U 16078G   26157.71888743  .00034398  00000+0  41686-3 0  9995
2 41890  34.9452 299.2303 0006367  88.7516 271.3938 15.59564881527364
CYGFM03                 
1 41891U 16078H   26157.81786015  .00030864  00000+0  37432-3 0  9994
2 41891  34.9407 300.5122 0005982  75.8011 284.3378 15.59563717527357
