OBJECT_NAME,OBJECT_ID,EPOCH,MEAN_MOTION,ECCENTRICITY,INCLINATION,RA_OF_ASC_NODE,ARG_OF_PERICENTER,MEAN_ANOMALY,EPHEMERIS_TYPE,CLASSIFICATION_TYPE,NORAD_CAT_ID,ELEMENT_SET_NO,REV_AT_EPOCH,BSTAR,MEAN_MOTION_DOT,MEAN_MOTION_DDOT
DMSP 5D-3 F16 (USA 172),2003-048A,2026-06-06T22:03:21.281184,14.14482134,.00072338,98.9893,181.6791,167.2445,310.8372,0,U,28054,999,16803,.31108459E-4,.14E-6,0
METEOSAT-9 (MSG-2),2005-049B,2026-06-06T20:31:58.380384,1.00268262,.00017945,9.3374,54.2678,349.1342,205.5679,0,U,28912,999,689,0,.136E-5,0
DMSP 5D-3 F17 (USA 191),2006-050A,2026-06-06T21:59:49.929504,14.14991554,.0011325,98.7378,164.6968,85.6566,274.5902,0,U,29522,999,1097,.49652806E-4,.53E-6,0
FENGYUN 3A,2008-026A,2026-06-06T13:05:11.110272,14.19568927,.0009124,98.6881,98.5777,152.1297,208.0370,0,U,32958,999,93389,.59985E-4,.83E-6,0
GOES 14,2009-033A,2026-06-06T15:13:38.481888,1.00114764,.00020467,1.6621,83.1711,2.3886,185.7647,0,U,35491,999,648,0,-.234E-5,0
DMSP 5D-3 F18 (USA 210),2009-057A,2026-06-06T22:59:27.374208,14.14891058,.00098869,98.9033,138.7496,282.0891,77.9175,0,U,35951,999,85814,.15208929E-3,.249E-5,0
EWS-G2 (GOES 15),2010-008A,2026-06-06T22:19:46.864992,1.00275973,.00054671,1.2487,83.0327,36.8430,173.9937,0,U,36411,999,5953,0,.33E-6,0
COMS 1,2010-032A,2026-06-01T17:43:38.675712,1.00271905,.00010648,4.7700,75.5552,351.7830,216.9341,0,U,36744,999,5093,0,-.334E-5,0
FENGYUN 3B,2010-059A,2026-06-06T21:52:33.270816,14.14839922,.00214096,98.9619,203.8822,213.7876,224.4795,0,U,37214,999,80597,.18200021E-3,.307E-5,0
SUOMI NPP,2011-061A,2026-06-06T21:48:22.932864,14.19515249,.00020786,98.7951,98.8551,28.9849,331.1442,0,U,37849,999,75698,.57981995E-4,.78E-6,0
METEOSAT-10 (MSG-3),2012-035B,2026-06-06T22:01:42.225312,1.00275739,.00016962,4.6466,61.0641,336.1143,188.7715,0,U,38552,999,5075,0,.8E-7,0
METOP-B,2012-049A,2026-06-06T21:53:58.480224,14.21429938,.00028199,98.6508,209.6162,43.3380,316.8019,0,U,38771,999,71180,.67548003E-4,.104E-5,0
INSAT-3D,2013-038B,2026-06-06T12:22:34.180896,1.00268069,.00008063,1.8977,82.6765,350.3630,137.0203,0,U,39216,999,4697,0,-.326E-5,0
FENGYUN 3C,2013-052A,2026-06-06T22:29:59.617248,14.15752753,.00156856,98.4974,132.2833,55.5494,304.7160,0,U,39260,999,65711,.66730409E-4,.9E-6,0
METEOR-M 2,2014-037A,2026-06-06T22:32:12.908256,14.21457739,.00070387,98.5114,134.0410,69.1947,290.9985,0,U,40069,999,61786,-.13861439E-4,-.72E-6,0
HIMAWARI-8,2014-060A,2026-06-06T22:41:44.758752,1.00271382,.00008917,0.0189,49.1479,48.0400,279.2817,0,U,40267,999,4265,0,-.262E-5,0
FENGYUN 2G,2014-090A,2026-06-06T19:04:41.495808,1.00277925,.00033304,5.6125,72.9393,154.5057,53.5102,0,U,40367,999,4189,0,-.289E-5,0
METEOSAT-11 (MSG-4),2015-034A,2026-06-06T22:04:19.474176,1.00277114,.00016752,3.1767,71.1668,5.1970,159.4501,0,U,40732,999,711,0,.77E-6,0
ELEKTRO-L 2,2015-074A,2026-06-05T23:42:55.922400,1.00272284,.00013042,6.6659,70.6588,282.3931,242.6125,0,U,41105,999,3839,0,-.105E-5,0
SENTINEL-3A,2016-011A,2026-06-06T21:46:45.834816,14.26737156,.00013453,98.6250,225.4383,104.6986,255.4344,0,U,41335,999,53659,.65689075E-4,.115E-5,0
INSAT-3DR,2016-054A,2026-06-06T22:22:46.576992,1.00270771,.00103392,0.0793,87.7132,186.9679,30.3541,0,U,41752,999,3571,0,-.63E-6,0
HIMAWARI-9,2016-064A,2026-06-06T22:41:52.247040,1.00273274,.00008588,0.0224,150.9500,327.3974,258.2472,0,U,41836,999,3510,0,-.261E-5,0
GOES 16,2016-071A,2026-06-06T21:31:49.960992,1.00270926,.000054,0.3135,85.6289,318.1588,69.8176,0,U,41866,999,3500,0,-.77E-6,0
FENGYUN 4A,2016-077A,2026-06-06T22:37:00.214176,1.00275056,.00081711,2.2963,80.3910,151.6723,126.3016,0,U,41882,999,3482,0,-.343E-5,0
CYGFM05,2016-078A,2026-06-06T20:28:11.619264,15.56205552,.00071497,34.9578,328.9993,44.1669,315.9626,0,U,41884,999,52714,.36000852E-3,.26138E-3,0
CYGFM04,2016-078B,2026-06-06T17:27:25.137792,15.60921223,.00060092,34.9328,298.0398,89.6469,270.4945,0,U,41885,999,52736,.41409115E-3,.36004E-3,0
CYGFM02,2016-078C,2026-06-06T17:56:48.592032,15.63814591,.00069588,34.9411,292.7401,91.2851,268.8673,0,U,41886,999,52753,.43527328E-3,.42435E-3,0
CYGFM01,2016-078D,2026-06-06T20:18:21.688704,15.56866284,.00070643,34.9409,330.1851,37.5777,322.5440,0,U,41887,999,52709,.36150019E-3,.26906E-3,0
CYGFM08,2016-078E,2026-06-06T19:45:15.298272,15.59466369,.00079226,34.9438,310.1862,71.9711,288.1877,0,U,41888,999,52735,.38066568E-3,.31293E-3,0
CYGFM07,2016-078G,2026-06-06T17:15:11.873952,15.59564881,.0006367,34.9452,299.2303,88.7516,271.3938,0,U,41890,999,52736,.41685777E-3,.34398E-3,0
CYGFM03,2016-078H,2026-06-06T19:37:43.116960,15.59563717,.00059823,34.9407,300.5122,75.8011,284.3378,0,U,41891,999,52735,.37431786E-3,.30864E-3,0
